{
"type": "FeatureCollection",
"generator": "overpass-ide",
"copyright": "The data included in this document is from www.openstreetmap.org. The data is made available under ODbL.",
"timestamp": "2020-07-16T13:56:03Z",
"name": "shops_osm",
"features": [
{ "type": "Feature", "id": "way\/223353199", "properties": { "@id": "way\/223353199", "addr:housenumber": "767", "addr:postcode": "1140", "addr:street": "Chaussée de Louvain - Leuvensesteenweg", "building": "yes", "name": "Cycles IMP Meiser", "ref:UrbIS": "7755665", "shop": "bicycle", "@geometry": "center" }, "geometry": { "type": "Point", "coordinates": [ 4.4119979, 50.8587373 ] } },
{ "type": "Feature", "id": "way\/224637450", "properties": { "@id": "way\/224637450", "addr:housenumber": "476", "addr:postcode": "1200", "addr:street": "Avenue Georges Henri - Georges Henrilaan", "building": "yes", "name": "Eddy sport", "ref:UrbIS": "8660000", "shop": "bicycle", "@geometry": "center", "addr:city": "Woluwe-Saint-Lambert - Sint-Lambrechts-Woluwe", "phone": "+32 2 734 24 58", "website": "http:\/\/www.eddysport.be\/" }, "geometry": { "type": "Point", "coordinates": [ 4.4026763, 50.8417771 ] } },
{ "type": "Feature", "id": "way\/226411265", "properties": { "@id": "way\/226411265", "addr:housenumber": "10", "addr:postcode": "1170", "addr:street": "Avenue de la Foresterie - Vorsterielaan", "building": "yes", "name": "km 10", "ref:UrbIS": "8734100", "shop": "bicycle", "@geometry": "center", "addr:city": "Watermael-Boitsfort - Watermaal-Bosvoorde", "website": "http:\/\/www.km10.be\/", "service:bicycle:cleaning": "yes" }, "geometry": { "type": "Point", "coordinates": [ 4.4200244, 50.7917963 ] } },
{ "type": "Feature", "id": "way\/227209788", "properties": { "@id": "way\/227209788", "building": "yes", "name": "Vélo Cité", "ref:UrbIS": "8092360", "shop": "bicycle", "@geometry": "center" }, "geometry": { "type": "Point", "coordinates": [ 4.3726966, 50.8673088 ] } },
{ "type": "Feature", "id": "node\/349714633", "properties": { "@id": "node\/349714633", "addr:housenumber": "6", "addr:street": "Avenue Jean Volders - Jean Volderslaan", "name": "Véloshop Mydo", "shop": "bicycle", "created_by": "Potlatch 0.10f", "repair": "yes" }, "geometry": { "type": "Point", "coordinates": [ 4.3433018, 50.8325133 ] } },
{ "type": "Feature", "id": "node\/351267651", "properties": { "@id": "node\/351267651", "name": "Velo Goffeau", "shop": "bicycle", "entrance": "yes" }, "geometry": { "type": "Point", "coordinates": [ 4.367408, 50.8332256 ] } },
{ "type": "Feature", "id": "node\/482152827", "properties": { "@id": "node\/482152827", "addr:housenumber": "15", "addr:postcode": "1050", "addr:street": "Rue de Londres - Londenstraat", "name": "Pro Velo", "shop": "bicycle", "addr:city": "Ixelles - Elsene", "contact:email": "info@provelo.org", "contact:facebook": "https:\/\/www.facebook.com\/pro.velo\/", "contact:phone": "+32 2 502 73 55", "contact:website": "http:\/\/www.provelo.org", "opening_hours": "Mo-Fr 10:00-13:00, 13:30-18:00; Sa-Su,PH 10:00-18:00", "service:bicycle:rental": "yes", "service:bicycle:retail": "no", "toilets:wheelchair": "no", "wheelchair": "limited", "wikidata": "Q981051", "wikipedia": "nl:Pro Velo" }, "geometry": { "type": "Point", "coordinates": [ 4.3675701, 50.8380129 ] } },
{ "type": "Feature", "id": "node\/514871516", "properties": { "@id": "node\/514871516", "name": "Point vélo - Fietspunt", "shop": "bicycle", "opening_hours": "Mo-Fr 07:00-19:00", "service:bicycle:rental": "yes", "name:fr": "Point vélo", "name:nl": "Fietspunt", "operator": "Cyclo", "service:bicycle:pump": "yes", "service:bicycle:repair": "yes" }, "geometry": { "type": "Point", "coordinates": [ 4.3557792, 50.8448385 ] } },
{ "type": "Feature", "id": "node\/867014029", "properties": { "@id": "node\/867014029", "addr:housenumber": "18", "addr:street": "Rue Pierre Timmermans - Pierre Timmermansstraat", "name": "Cicli Fransman", "shop": "bicycle", "phone": "+3224276290", "website": "https:\/\/www.ciclifransman.com", "service:bicycle:retail": "yes", "service:bicycle:repair": "yes", "currency:XLT": "ZINN", "payment:cash:XLT-ZINN": "yes" }, "geometry": { "type": "Point", "coordinates": [ 4.3241726, 50.8733567 ] } },
{ "type": "Feature", "id": "node\/1267855234", "properties": { "@id": "node\/1267855234", "addr:housenumber": "111", "addr:postcode": "1200", "addr:street": "Rue Saint-Lambert - Sint-Lambrechtsstraat", "name": "SeaSpeed", "shop": "bicycle" }, "geometry": { "type": "Point", "coordinates": [ 4.4355791, 50.8440816 ] } },
{ "type": "Feature", "id": "node\/1308998366", "properties": { "@id": "node\/1308998366", "name": "Best Bike", "shop": "bicycle" }, "geometry": { "type": "Point", "coordinates": [ 4.4303513, 50.8371455 ] } },
{ "type": "Feature", "id": "node\/1889918938", "properties": { "@id": "node\/1889918938", "addr:housenumber": "47", "addr:postcode": "1170", "addr:street": "Rue de l'Hospice Communal - Gemeentelijke Godshuisstraat", "name": "Vélo Pipette", "ref:UrbIS": "8724813", "shop": "bicycle", "phone": "+32 2 672 16 98", "website": "http:\/\/www.velopipette.be\/", "opening_hours": "Mo off;Tu-Fr 09:30-13:00, 14:00-18:30;Sa 09:30-18:30;Su off" }, "geometry": { "type": "Point", "coordinates": [ 4.4192089, 50.8000429 ] } },
{ "type": "Feature", "id": "node\/2166716644", "properties": { "@id": "node\/2166716644", "addr:housenumber": "1449", "addr:postcode": "1180", "addr:street": "Chaussée de Waterloo - Waterloosesteenweg", "name": "Miles & Miles", "shop": "bicycle", "addr:city": "Uccle - Ukkel", "status": 2 }, "geometry": { "type": "Point", "coordinates": [ 4.3782736, 50.7842658 ] } },
{ "type": "Feature", "id": "node\/2254391232", "properties": { "@id": "node\/2254391232", "addr:housenumber": "30", "addr:postcode": "1070", "addr:street": "Rue des Trèfles - Klaverstraat", "name": "Van den Driesch Jean", "shop": "bicycle" }, "geometry": { "type": "Point", "coordinates": [ 4.2913869, 50.8192317 ] } },
{ "type": "Feature", "id": "node\/2315446891", "properties": { "@id": "node\/2315446891", "addr:housenumber": "41", "addr:postcode": "1000", "addr:street": "Rue Van Artevelde - Arteveldestraat", "name": "Velodroom", "shop": "bicycle", "addr:city": "Bruxelles - Brussel", "contact:phone": "+32 2 513 81 99", "contact:website": "http:\/\/www.velodroom.net", "opening_hours": "Tu-Sa 10:00-18:30", "service:bicycle:rental": "yes", "service:bicycle:retail": "yes", "addr:country": "BE" }, "geometry": { "type": "Point", "coordinates": [ 4.3462861, 50.8482332 ] } },
{ "type": "Feature", "id": "node\/2325764501", "properties": { "@id": "node\/2325764501", "addr:housenumber": "2033", "addr:postcode": "1160", "addr:street": "Chaussée de Wavre - Waversesteenweg", "name": "Hot Wheelz", "shop": "bicycle", "addr:city": "Auderghem - Oudergem", "website": "https:\/\/www.bikeshop.be\/" }, "geometry": { "type": "Point", "coordinates": [ 4.4415913, 50.8104259 ] } },
{ "type": "Feature", "id": "node\/2332827831", "properties": { "@id": "node\/2332827831", "addr:housenumber": "235", "addr:street": "Avenue Milcamps - Milcampslaan", "name": "La maison du vélo", "shop": "bicycle", "addr:city": "Schaerbeek - Schaarbeek", "phone": "027420745", "website": "http:\/\/www.lamaisonduvelo.be\/", "service:bicycle:retail": "yes", "service:bicycle:repair": "yes", "service:bicycle:Bicycle_Sales_and_Service": "yes", "service:bicycle:parts": "yes" }, "geometry": { "type": "Point", "coordinates": [ 4.396165, 50.8541962 ] } },
{ "type": "Feature", "id": "node\/2367110092", "properties": { "@id": "node\/2367110092", "addr:housenumber": "20", "addr:postcode": "1040", "addr:street": "Place Saint-Pierre - Sint-Pietersplein", "name": "Vélophil", "shop": "bicycle", "addr:city": "Etterbeek", "phone": "+32 2 732 47 32", "website": "http:\/\/www.velophil.be\/", "opening_hours": "Tu 10:00-20:00; We-Fr 10:00-19:00; Sa 10:00-18:00", "addr:country": "BE" }, "geometry": { "type": "Point", "coordinates": [ 4.3964388, 50.8372285 ] } },
{ "type": "Feature", "id": "node\/2443552701", "properties": { "@id": "node\/2443552701", "addr:housenumber": "3B", "addr:street": "Clos du Parnasse - Parnassusgaarde", "name": "Bike Square", "ref:UrbIS": "8428263", "shop": "bicycle", "phone": "+32 498 44 60 52", "website": "http:\/\/www.bikesquare.be", "opening_hours": "Tu-Fr 10:00-18:00; May-Nov Sa 10:00-18:00; Dec-Apr 10:00-14:00; PH off", "email": "info@bikesquare.be" }, "geometry": { "type": "Point", "coordinates": [ 4.3702157, 50.837571 ] } },
{ "type": "Feature", "id": "node\/2462191319", "properties": { "@id": "node\/2462191319", "addr:housenumber": "32", "addr:postcode": "1050", "addr:street": "Place Eugène Flagey - Eugène Flageyplein", "name": "Velofixer", "ref:UrbIS": "8554536", "shop": "bicycle", "addr:city": "Ixelles - Elsene", "website": "http:\/\/www.velofixer.com", "opening_hours": "Tu-Su 10:00-19:00", "service:bicycle:retail": "yes", "service:bicycle:pump": "yes", "service:bicycle:repair": "yes" }, "geometry": { "type": "Point", "coordinates": [ 4.3725125, 50.8286241 ] } },
{ "type": "Feature", "id": "node\/2468792211", "properties": { "@id": "node\/2468792211", "addr:housenumber": "500", "addr:street": "Avenue de la Couronne - Kroonlaan", "name": "Cycles Devos", "ref:UrbIS": "8507068", "shop": "bicycle" }, "geometry": { "type": "Point", "coordinates": [ 4.3916509, 50.8194857 ] } },
{ "type": "Feature", "id": "node\/2486502698", "properties": { "@id": "node\/2486502698", "addr:housenumber": "354", "addr:postcode": "1040", "addr:street": "Chaussée de Wavre - Steenweg op Waver", "name": "Au Guidon Vert", "shop": "bicycle", "addr:city": "Etterbeek", "phone": "+32 2 230 08 02", "website": "http:\/\/www.auguidonvert.com\/fr\/accueil", "opening_hours": "We-Sa 13:00-18:00" }, "geometry": { "type": "Point", "coordinates": [ 4.380164, 50.8365172 ] } },
{ "type": "Feature", "id": "node\/2518122880", "properties": { "@id": "node\/2518122880", "addr:housenumber": "85", "addr:postcode": "1000", "addr:street": "Rue de Flandre - Vlaamsesteenweg", "name": "Cyclo", "ref:UrbIS": "8317097", "shop": "bicycle", "addr:city": "Bruxelles - Brussel", "contact:phone": "+32 2 513 95 55", "contact:website": "http:\/\/www.recyclo.org\/fr\/locatie\/atelier-cyclo", "opening_hours": "Tu-Fr 12:00 - 19:00; Sa 10:00 - 15:00", "addr:country": "BE", "addr:city:fr": "Bruxelles", "addr:city:nl": "Brussel", "addr:street:fr": "Rue de Flandre", "addr:street:nl": "Vlaamsesteenweg" }, "geometry": { "type": "Point", "coordinates": [ 4.3460313, 50.8525107 ] } },
{ "type": "Feature", "id": "node\/2594805882", "properties": { "@id": "node\/2594805882", "addr:housenumber": "53", "addr:postcode": "1000", "addr:street": "Rue du Vieux Marché aux Grains - Oude Graanmarkt", "name": "Kring", "ref:UrbIS": "8185687", "shop": "bicycle", "addr:city": "Bruxelles - Brussel", "addr:country": "BE", "addr:city:fr": "Bruxelles", "addr:city:nl": "Brussel", "addr:street:fr": "Rue du Vieux Marché aux Grains", "addr:street:nl": "Oude Graanmarkt", "description": "Cycling Store & Clubhouse" }, "geometry": { "type": "Point", "coordinates": [ 4.3454354, 50.8491071 ] } },
{ "type": "Feature", "id": "node\/2665166326", "properties": { "@id": "node\/2665166326", "addr:housenumber": "5", "addr:street": "Rue Joseph Stevens - Joseph Stevensstraat", "name": "Pop-Up Villo!", "ref:UrbIS": "8186427", "shop": "bicycle", "opening_hours": "Mo,Su,PH off; Tu,Th,Fr 13:00-18:00; We,Sa  10:00-18:00", "operator": "JCDecaux", "note": "Probably temporary—opening on Nov. 29, 2019—and aimed at selling batteries for electric Villo! bicycles" }, "geometry": { "type": "Point", "coordinates": [ 4.3523752, 50.8413129 ] } },
{ "type": "Feature", "id": "node\/3251077668", "properties": { "@id": "node\/3251077668", "addr:housenumber": "395", "addr:postcode": "1180", "addr:street": "Rue Vanderkindere - Vanderkinderestraat", "name": "Veloxygène", "shop": "bicycle", "addr:city": "Uccle - Ukkel", "website": "http:\/\/veloxygenebrompton.be\/" }, "geometry": { "type": "Point", "coordinates": [ 4.3609546, 50.8142463 ] } },
{ "type": "Feature", "id": "node\/3251077774", "properties": { "@id": "node\/3251077774", "addr:housenumber": "110", "addr:postcode": "1180", "addr:street": "Chaussée de Drogenbos - Drogenbossesteenweg", "name": "Bike in motion", "shop": "bicycle", "addr:city": "Uccle - Ukkel", "website": "https:\/\/www.bikeemotion.be\/" }, "geometry": { "type": "Point", "coordinates": [ 4.3213262, 50.7858158 ] } },
{ "type": "Feature", "id": "node\/3476216385", "properties": { "@id": "node\/3476216385", "name": "Stockel Sports", "shop": "bicycle" }, "geometry": { "type": "Point", "coordinates": [ 4.4487367, 50.8325382 ] } },
{ "type": "Feature", "id": "node\/4391519991", "properties": { "@id": "node\/4391519991", "shop": "bicycle", "mapillary": "https:\/\/www.mapillary.com\/app\/user\/filipc?lat=50.844555&lng=4.344782&z=17&pKey=F2ePOZ0_E7Ib7O3chKuNvw&focus=photo" }, "geometry": { "type": "Point", "coordinates": [ 4.345046, 50.8443827 ] } },
{ "type": "Feature", "id": "node\/4393877032", "properties": { "@id": "node\/4393877032", "addr:housenumber": "6", "addr:street": "Square Sainctelette - Sainctelettesquare", "name": "Magic Velos", "shop": "bicycle", "phone": "+32 2 425 75 35", "website": "http:\/\/www.magicvelos.be", "opening_hours": "Mo 14:00-19:00, Tu-Fr 10:00-19:00, Sa 10:00-17:00", "service:bicycle:retail": "yes", "service:bicycle:repair": "yes", "mapillary": "https:\/\/www.mapillary.com\/app\/?focus=photo&pKey=NjOLi6UWkHb3NltVgI7FGA&lat=50.8581796573881&lng=4.347712431595427&z=17", "service:bicycle:second_hand": "yes" }, "geometry": { "type": "Point", "coordinates": [ 4.3476473, 50.8579664 ] } },
{ "type": "Feature", "id": "node\/4401514084", "properties": { "@id": "node\/4401514084", "name": "Fietspunt", "shop": "bicycle", "opening_hours": "Mo-Fr 07:00-19:00", "mapillary": "https:\/\/www.mapillary.com\/app\/?focus=photo&pKey=yBrvEdflRdPa_Eg_3-DIHw&lat=50.8351941775594&lng=4.337435978700346&z=17" }, "geometry": { "type": "Point", "coordinates": [ 4.3370447, 50.8352511 ] } },
{ "type": "Feature", "id": "node\/4419350048", "properties": { "@id": "node\/4419350048", "addr:housenumber": "1", "addr:postcode": "1050", "addr:street": "Rue de Trèves - Trierstraat", "name": "Point vélo Luxembourg", "shop": "bicycle", "addr:city": "Ixelles - Elsene", "phone": "+32 2 224 77 22", "website": "http:\/\/www.cyclo.org\/fr\/ateliers\/point-velo-luxembourg", "opening_hours": "Mo-Fr 07:00-19:00", "operator": "CyCLO", "service:bicycle:pump": "yes", "service:bicycle:repair": "yes", "email": "luxembourg@cyclo.org" }, "geometry": { "type": "Point", "coordinates": [ 4.3736469, 50.8377763 ] } },
{ "type": "Feature", "id": "node\/4471890398", "properties": { "@id": "node\/4471890398", "addr:postcode": "1030", "addr:street": "Rue du Progrès - Vooruitgangstraat", "name": "Point Vélo Nord - Fietspunt Noord", "shop": "bicycle", "addr:city": "Bruxelles - Brussel", "website": "http:\/\/www.cyclo.org\/en\/workshops\/bike-point-north", "opening_hours": "Mo-Fr 07:00-19:00", "service:bicycle:retail": "no", "name:fr": "Point Vélo Nord", "name:nl": "Fietspunt Noord", "operator": "Cyclo", "service:bicycle:repair": "yes", "level": "-1", "name:en": "Bike Point North" }, "geometry": { "type": "Point", "coordinates": [ 4.3606142, 50.8602496 ] } },
{ "type": "Feature", "id": "node\/5265822479", "properties": { "@id": "node\/5265822479", "name": "Cyclo Europe", "shop": "bicycle", "phone": "+32 2 245 83 94", "opening_hours": "Tu-Fr 09:30-13:00,13:30-18:00; Sa 09:30-16:00" }, "geometry": { "type": "Point", "coordinates": [ 4.3983682, 50.8726766 ] } },
{ "type": "Feature", "id": "node\/5453670117", "properties": { "@id": "node\/5453670117", "addr:housenumber": "789", "addr:postcode": "1180", "addr:street": "Chaussée de Waterloo - Waterloosesteenweg", "name": "Bike your city", "shop": "bicycle", "addr:city": "Uccle - Ukkel", "website": "http:\/\/www.bikeyourcity.be\/", "opening_hours": "Mo-Fr 09:30-19:00 Sa 10:00-18:00" }, "geometry": { "type": "Point", "coordinates": [ 4.3684682, 50.8115605 ] } },
{ "type": "Feature", "id": "node\/5743761943", "properties": { "@id": "node\/5743761943", "addr:housenumber": "139", "addr:street": "Chaussée de Wavre Waversesteenweg", "name": "BikesPals", "shop": "bicycle", "phone": "+32 488 31 09 72", "website": "bikespals.com" }, "geometry": { "type": "Point", "coordinates": [ 4.3690825, 50.8355746 ] } },
{ "type": "Feature", "id": "node\/6178017063", "properties": { "@id": "node\/6178017063", "addr:housenumber": "124", "addr:postcode": "1000", "addr:street": "Rue Van Artevelde - Arteveldestraat", "name": "Cycloperativa", "shop": "bicycle", "addr:city": "Bruxelles - Brussel", "website": "www.cycloperativa.org", "opening_hours": "Mo 18:00-21:00", "operator": "Cycloperativa asbl", "service:bicycle:pump": "yes", "service:bicycle:repair": "yes", "currency:XLT": "ZINN", "payment:cash:XLT-ZINN": "yes", "service:bicycle:second_hand": "yes", "payment:cash": "yes", "service:bicycle:diy": "yes" }, "geometry": { "type": "Point", "coordinates": [ 4.3435951, 50.8464191 ] } },
{ "type": "Feature", "id": "node\/6438517889", "properties": { "@id": "node\/6438517889", "addr:housenumber": "157", "addr:postcode": "1000", "addr:street": "Boulevard Anspach - Anspachlaan", "shop": "bicycle", "website": "http:\/\/www.velofixer.com", "opening_hours": "Tu-Sa 10:00-19:00", "int_name": "Velofixer" }, "geometry": { "type": "Point", "coordinates": [ 4.3469744, 50.8460372 ] } },
{ "type": "Feature", "id": "node\/6593460328", "properties": { "@id": "node\/6593460328", "name": "Point vélo - Fietspunt", "shop": "bicycle", "service:bicycle:cleaning": "yes", "contact:email": "info@cyclo.org", "contact:phone": "+32 2 657 60 47", "opening_hours": "Tu-Fr 09:00-19:00; Sa 10:00-16:00", "name:fr": "Point vélo", "name:nl": "Fietspunt", "operator": "Cyclo", "service:bicycle:pump": "yes", "service:bicycle:repair": "yes", "full_name": "Point vélo Bourse - Fietspunt Beurs", "full_name:fr": "Point vélo Bourse", "full_name:nl": "Fietspunt Beurs", "location": "underground" }, "geometry": { "type": "Point", "coordinates": [ 4.3499189, 50.848584 ] } },
{ "type": "Feature", "id": "node\/6980028719", "properties": { "@id": "node\/6980028719", "addr:housenumber": "12", "addr:street": "Avenue Edouard de Thibault - Edouard de Thibaultlaan", "name": "Broebel'Air", "shop": "bicycle", "website": "https:\/\/www.broebelair.be", "service:bicycle:repair": "yes", "currency:XLT": "ZINN", "payment:cash:XLT-ZINN": "yes" }, "geometry": { "type": "Point", "coordinates": [ 4.39622, 50.8356182 ] } },
{ "type": "Feature", "id": "node\/7494498486", "properties": { "@id": "node\/7494498486", "name": "Pignon sur Roue", "shop": "bicycle", "service:bicycle:retail": "yes", "service:bicycle:repair": "yes" }, "geometry": { "type": "Point", "coordinates": [ 4.3828127, 50.8617218 ] } },
{ "type": "Feature", "id": "node\/7541057879", "properties": { "@id": "node\/7541057879", "addr:housenumber": "49", "addr:street": "Avenue Rommelaere - Rommelaerelaan", "name": "Velonaut", "shop": "bicycle", "phone": "+32 24 78 09 01", "website": "http:\/\/www.velonaut.be\/", "opening_hours": "Tu-Fr 13:00-17:30; Sa 09:00-12:00" }, "geometry": { "type": "Point", "coordinates": [ 4.3345362, 50.8892402 ] } }
]
}
